#aV2006  5  8  0  0   .00000000      96 DD+AD WGS84 FIT  NGA
## 1374  86400.00000000   900.00000000 53863  .0000000000000
+   29     1  2  3  4  5  6  7  8  9 10 11 13 14 15 16 17 18
+         19 20 21 22 23 24 25 26 27 28 29 30  0  0  0  0  0
+          0  0  0  0  0  0  0  0  0  0  0  0  0  0  0  0  0
+          0  0  0  0  0  0  0  0  0  0  0  0  0  0  0  0  0
+          0  0  0  0  0  0  0  0  0  0  0  0  0  0  0  0  0
++         0  0  0  0  0  0  0  0  0  0  0  0  0  0  0  0  0
++         0  0  0  0  0  0  0  0  0  0  0  0  0  0  0  0  0
++         0  0  0  0  0  0  0  0  0  0  0  0  0  0  0  0  0
++         0  0  0  0  0  0  0  0  0  0  0  0  0  0  0  0  0
++         0  0  0  0  0  0  0  0  0  0  0  0  0  0  0  0  0
%c cc cc ccc ccc cccc cccc cccc cccc ccccc ccccc ccccc ccccc
%c cc cc ccc ccc cccc cccc cccc cccc ccccc ccccc ccccc ccccc
%f  0.0000000  0.000000000  0.00000000000  0.000000000000000
%f  0.0000000  0.000000000  0.00000000000  0.000000000000000
%i    0    0    0    0      0      0      0      0         0
%i    0    0    0    0      0      0      0      0         0
/*      NGA, ST. LOUIS,MO.                                  
/*   EPHEMERIS COMPUTED FROM  3 DAYS OF DATA                
/* CCCCCCCCCCCCCCCCCCCCCCCCCCCCCCCCCCCCCCCCCCCCCCCCCCCCCCCCC
/* CCCCCCCCCCCCCCCCCCCCCCCCCCCCCCCCCCCCCCCCCCCCCCCCCCCCCCCCC
*  2006  5  8 13 45   .00000000                                                 
P  1 -15079.539088  21168.871405   5548.345555     51.616508                    
V  1  -6053.310074   3605.128468 -31346.271621       .022819                    
P  2   8296.643972 -13612.873269  20950.877350     -4.193197                    
V  2  26617.897234   6060.512371  -6719.389132       .025744                    
P  3  -8992.970912  23337.723472  -8634.889267     96.892061                    
V  3  -9467.920207   6576.833310  28474.387156       .029335                    
P  4  19510.812340  -7765.085435  16427.950318    224.976398                    
V  4  19950.526215   6246.273669 -20348.738900       .094606                    
P  5 -13533.704378 -22405.206721   4810.936706    -36.453537                    
V  5    556.962055  -7151.332448 -30325.004035       .566313                    
P  6 -16509.821927  -3953.005241  20637.490823    514.241273                    
V  6  15693.486622 -20565.884216   8620.907092       .185628                    
P  7 -19927.475986  15891.674923   8056.713226    535.384913                    
V  7   3512.096790  -9662.218868  28829.891260       .028897                    
P  8  24715.965390  -1235.784897 -10318.977097    -65.070366                    
V  8  11955.485648   4770.091313  28066.968928      -.011227                    
P  9 -13914.404966 -14827.492018 -17781.179348     19.356634                    
V  9  21350.598165   2041.624814 -18718.274353       .015514                    
P 10    271.102380 -23983.607887  10960.604546     83.103736                    
V 10   6478.152601  12800.959558  27909.118333       .006094                    
P 11  16115.856730  13770.097890 -16210.550282    325.726068                    
V 11 -20714.154576   1765.937718 -18921.591817       .025060                    
P 13  15987.636904   2834.820105  20918.497571     60.255228                    
V 13 -17636.009943  20047.953157  10774.822400       .028152                    
P 14 -20616.277144  14078.463311  -8929.225035    -14.437083                    
V 14   6230.272457  -9751.504852 -29588.765392       .007396                    
P 15 -24746.893789    640.365483 -10314.596261    609.315989                    
V 15 -11665.970406  -5581.122672  27686.140872       .060860                    
P 16  -4643.268676  20934.011413  15694.056338     41.527690                    
V 16  -8060.494011 -18201.130384  22119.929244       .023805                    
P 17  20803.698826 -13037.900781 -10023.005380     90.549191                    
V 17  -6477.729844  11274.093393 -28231.686215       .034588                    
P 18 -16413.742863  -9166.364947 -18782.038155   -234.356656                    
V 18  -5407.953681 -23376.654368  15752.843369      -.016771                    
P 19   -999.460610  19181.881934 -18216.881553    -11.803626                    
V 19 -17606.254536  15460.182653  17187.635139       .018116                    
P 20  13142.678804  21846.186095   7416.609323    -27.252087                    
V 20    548.564764   9910.616501 -29752.384844       .006338                    
P 21 -26293.507441  -5250.565204  -1404.982031     27.181925                    
V 21  -1100.815592  -3242.201558  30961.801420       .027242                    
P 22 -13959.364797   6487.113418 -21493.165337     93.591434                    
V 22  -7774.886220 -26557.212833  -2952.806538       .041624                    
P 23   7596.835085  13632.509806  21375.190743    142.027977                    
V 23 -18482.908147  20188.332821  -6434.941222      -.009053                    
P 24  25615.991308    942.169704   7694.042025      4.423707                    
V 24   8510.456766   4632.212485 -29555.562308       .028647                    
P 25 -14915.060544  11928.139507  18914.875597      7.179685                    
V 25 -22895.281425  -3770.373119 -15887.777933      -.095758                    
P 26   3302.731850 -20090.762707 -17103.331505   -109.017201                    
V 26  15430.626667 -14539.809931  21100.513474      -.112447                    
P 27  26411.616923   4180.128755    788.632574     47.795482                    
V 27   -625.654051   2551.552805  31465.574141       .017864                    
P 28  15110.211450  -2104.768311 -21475.314108     27.844654                    
V 28   8333.537837  26661.837159   2869.610618      -.008340                    
P 29   6790.072386 -21537.576773 -13516.807402    600.924964                    
V 29  12898.591616 -12145.537849  25658.945794       .068574                    
P 30 -16681.929906 -14645.598075  14392.885207    226.443961                    
V 30  -4311.968132 -18415.757454 -23170.742301       .304589                    
EOF
